[{"OBJECT_NAME":"STARLINK-34969","OBJECT_ID":"2025-179G","EPOCH":"2026-03-09T15:46:24.233088","MEAN_MOTION":15.05662612,"ECCENTRICITY":0.00019639,"INCLINATION":97.6036,"RA_OF_ASC_NODE":112.935,"ARG_OF_PERICENTER":125.6061,"MEAN_ANOMALY":234.5349,"EPHEMERIS_TYPE":0,"CLASSIFICATION_TYPE":"U","NORAD_CAT_ID":65241,"ELEMENT_SET_NO":999,"REV_AT_EPOCH":3181,"BSTAR":-1.2887071e-5,"MEAN_MOTION_DOT":-2.47e-6,"MEAN_MOTION_DDOT":0},{"OBJECT_NAME":"RAAF M1","OBJECT_ID":"2018-099X","EPOCH":"2026-03-09T15:51:10.230048","MEAN_MOTION":15.07065376,"ECCENTRICITY":0.00134971,"INCLINATION":97.4534,"RA_OF_ASC_NODE":114.8325,"ARG_OF_PERICENTER":21.6261,"MEAN_ANOMALY":338.5534,"EPHEMERIS_TYPE":0,"CLASSIFICATION_TYPE":"U","NORAD_CAT_ID":43779,"ELEMENT_SET_NO":999,"REV_AT_EPOCH":39714,"BSTAR":0.00026511092,"MEAN_MOTION_DOT":3.923e-5,"MEAN_MOTION_DDOT":0}]
